NOAA 15                 
1 25338U 98030A   23008.48985870  .00000185  00000+0  95379-4 0  9993
2 25338  98.6243  40.1381 0011269  62.8971 297.3357 14.26218528282494
DMSP 5D-3 F15 (USA 147) 
1 25991U 99067A   23008.47059212  .00000196  00000+0  12139-3 0  9994
2 25991  99.0656   8.6970 0009643 333.1627 199.3444 14.16622386192814
DMSP 5D-3 F16 (USA 172) 
1 28054U 03048A   23008.51220906  .00000148  00000+0  10244-3 0  9998
2 28054  99.0037   5.5406 0008240  97.5312  64.7497 14.13724126991995
NOAA 18                 
1 28654U 05018A   23008.44711079  .00000241  00000+0  15357-3 0  9995
2 28654  98.9286  83.5083 0015180 111.5016 248.7776 14.12835162909019
METEOSAT-9 (MSG-2)      
1 28912U 05049B   23007.83402722  .00000135  00000+0  00000+0 0  9997
2 28912   6.4817  64.9384 0001596 193.2316 194.9208  1.00268214 62443
EWS-G1 (GOES 13)        
1 29155U 06018A   23008.51211604  .00000048  00000+0  00000+0 0  9990
2 29155   1.1043  93.0117 0005298 162.2206  98.6504  1.00265140 60914
DMSP 5D-3 F17 (USA 191) 
1 29522U 06050A   23008.47878404  .00000185  00000+0  11995-3 0  9997
2 29522  98.7601  24.6246 0010444  42.2942 317.9034 14.14158181834885
FENGYUN 3A              
1 32958U 08026A   23008.34194638  .00000163  00000+0  98615-4 0  9996
2 32958  98.5336 327.9002 0009274 144.8294 215.3496 14.18779304757384
FENGYUN 2E              
1 33463U 08066A   23007.91750601 -.00000196  00000+0  00000+0 0  9995
2 33463   6.3605  64.0860 0001755 261.1370 199.0547  1.00267467 51490
NOAA 19                 
1 33591U 09005A   23008.47193871  .00000230  00000+0  14914-3 0  9994
2 33591  99.1239  51.6722 0013423 335.7141  24.3396 14.12663277717399
GOES 14                 
1 35491U 09033A   23008.43088307 -.00000080  00000+0  00000+0 0  9990
2 35491   0.0990 242.2152 0017407 346.1289 290.1354  1.00270025 49567
METEOR-M 1              
1 35865U 09049A   23008.17160176  .00000159  00000+0  90681-4 0  9993
2 35865  98.5580 337.3333 0002473  18.7320 341.3949 14.22396578690786
DMSP 5D-3 F18 (USA 210) 
1 35951U 09057A   23008.53328682  .00000307  00000+0  18575-3 0  9992
2 35951  98.7484 348.1300 0010337 219.4423 140.5999 14.13620543682083
GOES 15                 
1 36411U 10008A   23008.44499035  .00000067  00000+0  00000+0 0  9996
2 36411   0.0541 291.6078 0003077 267.6953 300.6720  1.00265388 47063
COMS 1                  
1 36744U 10032A   23007.81066028 -.00000333  00000+0  00000+0 0  9991
2 36744   1.5900  91.4149 0001163 187.5336 248.1551  1.00272816 38490
FENGYUN 3B              
1 37214U 10059A   23008.16469911  .00000047  00000+0  48822-4 0  9990
2 37214  99.0911  22.7679 0022928 136.0929 224.2076 14.14282979629898
SUOMI NPP               
1 37849U 11061A   23008.46147104  .00000114  00000+0  75156-4 0  9993
2 37849  98.7547 309.3488 0001369  81.6489  28.1035 14.19532834580274
FENGYUN 2F              
1 38049U 12002A   23007.80311281 -.00000349  00000+0  00000+0 0  9990
2 38049   4.2918  78.0983 0001274 266.8785 163.2721  1.00278579 40286
METEOSAT-10 (MSG-3)     
1 38552U 12035B   23007.82687970  .00000074  00000+0  00000+0 0  9992
2 38552   1.8634  50.9083 0001218 204.4854 158.9862  1.00276856 38264
METOP-B                 
1 38771U 12049A   23008.48339122  .00000160  00000+0  93195-4 0  9994
2 38771  98.7033  70.3479 0001491 118.3414  78.5785 14.21493670534857
FENGYUN 3C              
1 39260U 13052A   23008.54931819  .00000125  00000+0  84272-4 0  9998
2 39260  98.4385  31.1108 0012019  47.3929 312.8257 14.15974035480942
METEOR-M 2              
1 40069U 14037A   23008.33579829  .00000086  00000+0  59137-4 0  9995
2 40069  98.4254  21.7232 0006875  87.0338 273.1626 14.20734295440951
HIMAWARI-8              
1 40267U 14060A   23007.85674549 -.00000263  00000+0  00000+0 0  9990
2 40267   0.0390 118.0837 0001300 176.4383 261.7192  1.00271038 30167
FENGYUN 2G              
1 40367U 14090A   23008.52638094 -.00000293  00000+0  00000+0 0  9997
2 40367   2.4494  87.3912 0000931 241.9507  67.6661  1.00278879 29449
METEOSAT-11 (MSG-4)     
1 40732U 15034A   23007.82496208  .00000011  00000+0  00000+0 0  9990
2 40732   0.4649   1.1153 0000691  69.9260 333.2966  1.00276563 27427
ELEKTRO-L 2             
1 41105U 15074A   23007.60691845 -.00000106  00000+0  00000+0 0  9995
2 41105   3.5015  85.7462 0002478 162.6969  62.4658  1.00270659 25917
HIMAWARI-9              
1 41836U 16064A   23008.51368878 -.00000262  00000+0  00000+0 0  9997
2 41836   0.0494 199.1821 0001388 111.5661 122.7190  1.00272945 22717
GOES 16                 
1 41866U 16071A   23008.45553730 -.00000235  00000+0  00000+0 0  9994
2 41866   0.0754 247.7859 0001029  70.6524 238.0859  1.00270303 22523
FENGYUN 4A              
1 41882U 16077A   23008.25033745 -.00000318  00000+0  00000+0 0  9997
2 41882   0.0457  40.8529 0005214  12.5703 248.9162  1.00273130 22383
CYGFM05                 
1 41884U 16078A   23008.25660184  .00004839  00000+0  23515-3 0  9994
2 41884  34.9574   5.1271 0013848 131.0743 229.1167 15.17755140336004
CYGFM04                 
1 41885U 16078B   23007.64325889  .00005552  00000+0  26530-3 0  9990
2 41885  34.9505 357.0166 0012526 145.6280 214.5244 15.18310551335861
CYGFM02                 
1 41886U 16078C   23007.36583215  .00005827  00000+0  27804-3 0  9999
2 41886  34.9598   1.0248 0013106 135.9262 224.2497 15.18349755335909
CYGFM01                 
1 41887U 16078D   23007.69310079  .00005443  00000+0  26582-3 0  9998
2 41887  34.9539  11.3716 0014203 124.4624 235.7432 15.17544959335765
CYGFM08                 
1 41888U 16078E   23008.27043061  .00005333  00000+0  25674-3 0  9997
2 41888  34.9510 359.4285 0013672 143.9758 216.1877 15.18051410336027
CYGFM07                 
1 41890U 16078G   23007.66649456  .00005963  00000+0  28502-3 0  9994
2 41890  34.9528 356.6645 0012019 144.0709 216.0813 15.18294894335876
CYGFM03                 
1 41891U 16078H   23007.66499832  .00005899  00000+0  28198-3 0  9995
2 41891  34.9559 357.1944 0011506 141.9631 218.1895 15.18298037335864
FENGYUN 3D              
1 43010U 17072A   23008.51485256  .00000089  00000+0  63890-4 0  9990
2 43010  98.8410 317.3175 0002333  61.2833 298.8563 14.19125464266856
NOAA 20                 
1 43013U 17073A   23008.54470491  .00000087  00000+0  62173-4 0  9993
2 43013  98.7385 309.0662 0001197 113.2248 246.9054 14.19542372266325
GOES 17                 
1 43226U 18022A   23008.43591262  .00000111  00000+0  00000+0 0  9996
2 43226   0.0033 315.1978 0000543 350.9182 181.1877  1.00272716 17848
FENGYUN 2H              
1 43491U 18050A   23007.84073894 -.00000119  00000+0  00000+0 0  9990
2 43491   1.6666  93.5795 0002083  80.3902 315.1092  1.00274373 16848
METOP-C                 
1 43689U 18087A   23008.48143108  .00000160  00000+0  92906-4 0  9992
2 43689  98.7079  70.4019 0003724 150.0093 210.1298 14.21499459216434
GEO-KOMPSAT-2A          
1 43823U 18100A   23008.54090684 -.00000331  00000+0  00000+0 0  9995
2 43823   0.0400 141.1861 0000435 234.1413  55.4716  1.00270901 15079
METEOR-M2 2             
1 44387U 19038A   23008.50442904  .00000047  00000+0  39993-4 0  9995
2 44387  98.7523 332.9312 0002261  60.2146 299.9248 14.23738825182585
FENGYUN 3E              
1 49008U 21062A   23008.31336048  .00000051  00000+0  44535-4 0  9993
2 49008  98.7173  12.1026 0002805 106.7400 253.4087 14.19752120 78380
GOES 18                 
1 51850U 22021A   23007.79750510  .00000109  00000+0  00000+0 0  9990
2 51850   0.0091 273.9665 0000967   4.0073 339.2774  1.00272787  3209
NOAA 21 (JPSS-2)        
1 54234U 22150A   23007.85765377  .00000130  00000+0  82459-4 0  9993
2 54234  98.7024 308.4501 0001113  85.8539 274.2765 14.19552687  8307
METEOSAT-12             
1 54743U 22170C   23007.89600154 -.00000017  00000+0  00000+0 0  9997
2 54743   0.9444 298.5939 0000293 147.1794 340.5649  1.00272478   381
